KUIPER-00016            
1 63732U 25088J   25212.91668981 -.00979192  00000+0 -68892-1 0  9996
2 63732  51.8868   9.8717 0010333  63.9972 157.8965 15.07639202 14604
KUIPER-00018            
1 63733U 25088K   25212.91668981 -.01290587  00000+0 -55210-1 0  9992
2 63733  51.8759   4.8427 0007332  79.7627 164.3880 15.25309954 14678
KUIPER-00019            
1 63734U 25088L   25212.91668981 -.00722620  00000+0 -23235-1 0  9992
2 63734  51.8717   4.2474 0004764  90.9752  67.8878 15.34261309 14685
KUIPER-00020            
1 63735U 25088M   25212.91668981 -.01231986  00000+0 -60093-1 0  9997
2 63735  51.8810   5.6642 0007562  68.9184  94.3077 15.20773903 14875
KUIPER-00021            
1 63736U 25088N   25212.91668981 -.01061839  00000+0 -54889-1 0  9992
2 63736  51.8728   6.2231 0005994  83.2340 202.0648 15.18853092 14693
KUIPER-00023            
1 63737U 25088P   25212.58335648 -.00038100  00000+0 -19432-2 0  9997
2 63737  51.8802   8.4932 0010619  79.4147 205.7969 15.16117691  4131
KUIPER-00024            
1 63738U 25088Q   25212.61669379  .00020016  00000+0  52567-3 0  9995
2 63738  51.8733   4.8441 0001145 106.6307 253.4806 15.38606134 15125
KUIPER-00025            
1 63739U 25088R   25212.91668981 -.01299747  00000+0 -57078-1 0  9999
2 63739  51.8762   4.9017 0008558  58.6656 112.8108 15.24447716 15000
